GLOBALSTAR M067         
1 32263U 07048A   24121.92747964 -.00000070  00000+0  20008-3 0  9993
2 32263  51.9705 162.2111 0001042 179.5367 245.9129 12.40643577758319
GLOBALSTAR M070         
1 32264U 07048B   24121.93505051 -.00000053  00000+0  28389-3 0  9995
2 32264  51.9750 304.3631 0000517 105.4434  41.4860 12.62291349761602
GLOBALSTAR M066         
1 32265U 07048C   24121.90081831 -.00000080  00000+0  13215-3 0  9990
2 32265  51.9657 166.4525 0000422 165.1698   6.7312 12.62261519764805
GLOBALSTAR M068         
1 32266U 07048D   24122.24338619 -.00000058  00000+0  25656-3 0  9995
2 32266  51.9860 117.9590 0000875 322.9828  50.6832 12.62786919765807
GLOBALSTAR M079         
1 37188U 10054A   24121.96385156 -.00000074  00000+0  16853-3 0  9997
2 37188  52.0041 314.6607 0001059 102.3280  44.5876 12.62269142624392
GLOBALSTAR M074         
1 37189U 10054B   24121.80263677 -.00000081  00000+0  12567-3 0  9990
2 37189  52.0021 314.5387 0000780  99.3600 273.9273 12.62267875624981
GLOBALSTAR M076         
1 37190U 10054C   24121.93748345 -.00000060  00000+0  24449-3 0  9995
2 37190  52.0033 314.2600 0001006 128.7299  18.8787 12.62277810624711
GLOBALSTAR M077         
1 37191U 10054D   24121.75748834 -.00000073  00000+0  16935-3 0  9994
2 37191  52.0067 271.5460 0000673 118.5645 349.4898 12.62272247625063
